PROBA-1                 
1 26958U 01049B   20035.16465267  .00000505  00000-0  48745-4 0  9993
2 26958  97.7018 352.0003 0072560 350.5086   9.4772 14.95466075995272
BIRD 2                  
1 26959U 01049C   20035.03186782  .00001182  00000-0  34784-4 0  9992
2 26959  97.8590  59.2711 0007515 203.4105 156.6797 15.37358756 13970
CUTE-1 (CO-55)          
1 27844U 03031E   20034.98995357  .00000047  00000-0  40876-4 0  9996
2 27844  98.6840  44.7416 0010929  85.5027 274.7400 14.22219009861027
CUBESAT XI-IV (CO-57)   
1 27848U 03031J   20034.97766131  .00000037  00000-0  36416-4 0  9999
2 27848  98.6912  45.2715 0010820  96.4055 263.8355 14.21808460860864
GENESIS 1               
1 29252U 06029A   20035.15419111  .00000287  00000-0  24130-4 0  9991
2 29252  64.5239  20.7882 0024477 193.3286 166.7194 15.18015446747797
FALCONSAT-3             
1 30776U 07006E   20034.75017550  .00002493  00000-0  68292-4 0  9994
2 30776  35.4354  61.4272 0001928  21.2788 338.8019 15.37155406716091
GENESIS 2               
1 31789U 07028A   20035.09749723  .00000184  00000-0  19501-4 0  9999
2 31789  64.5032  62.3032 0050000 259.0771 100.4724 15.17145119694789
APRIZESAT 4             
1 35684U 09041D   20033.95542842  .00000041  00000-0  13170-4 0  9998
2 35684  98.2582   8.9185 0045948 247.3820 112.2527 14.79250855567104
APRIZESAT 3             
1 35686U 09041F   20034.58242858  .00000050  00000-0  12045-4 0  9994
2 35686  98.2037  87.2332 0074015 127.1571 233.6435 14.87358974570087
PROBA-2                 
1 36037U 09059B   20035.00278978  .00000012  00000-0  13668-4 0  9994
2 36037  98.2268 226.8835 0012212 252.1685 107.8179 14.53090563543806
APRIZESAT 5             
1 37792U 11044E   20035.07007833  .00000058  00000-0  16886-4 0  9992
2 37792  98.4156 228.5293 0057237 232.9601 126.6363 14.75365997455671
APRIZESAT 6             
1 37793U 11044F   20034.99525201  .00000056  00000-0  17637-4 0  9990
2 37793  98.4103 204.8044 0045702 268.6423 206.1016 14.72430544454796
TET-1                   
1 38710U 12039D   20035.03329573  .00002831  00000-0  51326-4 0  9991
2 38710  97.6142  54.8122 0001857 338.0388  22.0783 15.50561172423055
PROBA-V                 
1 39159U 13021A   20035.13548066 -.00000041  00000-0  45600-6 0  9994
2 39159  98.4827  97.6953 0005345  94.4644 265.7146 14.22981659350404
STPSAT-3                
1 39380U 13064A   20034.67836898  .00000799  00000-0  27426-4 0  9991
2 39380  40.4998 167.7075 0003059  13.5812 346.5084 15.37383351346034
APRIZESAT 7             
1 39416U 13066A   20035.05461188  .00000050  00000-0  12130-4 0  9998
2 39416  97.5322  51.3810 0040349 328.7863  31.0956 14.83936750335863
APRIZESAT 8             
1 39425U 13066K   20035.00981079  .00000064  00000-0  14541-4 0  9992
2 39425  97.5529  41.9751 0051786 356.0911   3.9890 14.81156547335261
BUGSAT-1 (TITA)         
1 40014U 14033E   20035.16850243  .00000608  00000-0  60241-4 0  9990
2 40014  98.0467 353.2623 0032108  19.9713 340.2770 14.95391497306940
SAUDISAT 4              
1 40016U 14033G   20035.05076746  .00000020  00000-0  10186-4 0  9999
2 40016  97.7305 262.6771 0049631  62.5508 298.0736 14.75270578302965
APRIZESAT 9             
1 40018U 14033J   20035.17013295  .00000043  00000-0  14620-4 0  9996
2 40018  97.7182 242.5968 0072797 108.1309 252.7843 14.69963099301808
APRIZESAT 10            
1 40019U 14033K   20035.09591278 -.00000001  00000-0  79859-5 0  9991
2 40019  97.7275 232.5809 0085263 135.7814 225.0247 14.67023022301244
TDS 1                   
1 40076U 14037H   20035.08354106 -.00000098  00000-0 -44261-5 0  9990
2 40076  98.4379 207.1567 0006567 348.7715  11.3335 14.84364403301531
TIANTUO 2               
1 40144U 14053B   20035.05356660  .00000538  00000-0  18302-4 0  9991
2 40144  97.2584 120.2298 0013250  71.6488  49.6681 15.34633883302440
TECHNOSAT               
1 42829U 17042E   20035.13563450  .00000022  00000-0  76283-5 0  9991
2 42829  97.5390 283.0628 0014711  18.6295 341.5459 14.91052038139270
FLYING LAPTOP           
1 42831U 17042G   20034.24450243  .00000129  00000-0  18404-4 0  9998
2 42831  97.5402 282.3187 0014679  21.6001 338.5834 14.91083088139149
HAWK-A                  
1 43765U 18099H   20034.95882920  .00000397  00000-0  40511-4 0  9998
2 43765  97.7186 109.2330 0013446 288.0230  71.9526 14.96059983 63861
HAWK-B                  
1 43794U 18099AN  20035.09299521  .00000360  00000-0  37179-4 0  9991
2 43794  97.7186 109.3651 0013516 287.6356  72.3389 14.96061450 63877
HAWK-C                  
1 43799U 18099AT  20035.15967638  .00000360  00000-0  37193-4 0  9990
2 43799  97.7186 109.3478 0013428 287.0813  72.8937 14.96059508 63889
